OBJECT_NAME,OBJECT_ID,EPOCH,MEAN_MOTION,ECCENTRICITY,INCLINATION,RA_OF_ASC_NODE,ARG_OF_PERICENTER,MEAN_ANOMALY,EPHEMERIS_TYPE,CLASSIFICATION_TYPE,NORAD_CAT_ID,ELEMENT_SET_NO,REV_AT_EPOCH,BSTAR,MEAN_MOTION_DOT,MEAN_MOTION_DDOT
ONEWEB-0130,2020-100U,2026-07-18T21:42:31.684896,13.12444415,.0001952,87.8979,344.3476,98.9364,261.1985,0,U,47276,999,26880,-.33456463E-3,-.108E-5,0
ONEWEB-0131,2020-100V,2026-07-18T21:37:39.123264,13.12443623,.00018677,87.8963,344.3631,102.6324,257.5013,0,U,47277,999,26884,-.73870466E-3,-.253E-5,0
ONEWEB-0132,2020-100W,2026-07-18T20:29:20.805792,13.12441831,.00019138,87.8967,344.3750,98.3466,261.7880,0,U,47278,999,26873,.11978682E-2,.444E-5,0
ONEWEB-0133,2020-100X,2026-07-18T20:53:31.365888,13.12443059,.00018708,87.8979,344.3511,105.4376,254.6960,0,U,47279,999,26889,.75518831E-4,.4E-6,0
ONEWEB-0134,2020-100Y,2026-07-18T20:09:49.705632,13.12443367,.00020802,87.8979,344.3546,101.7875,258.3487,0,U,47280,999,26886,.52723444E-3,.202E-5,0
ONEWEB-0135,2020-100Z,2026-07-18T21:18:07.091712,13.12443479,.00020259,87.8966,344.3636,105.3315,254.8038,0,U,47281,999,26889,-.10590256E-2,-.368E-5,0
ONEWEB-0136,2020-100AA,2026-07-18T21:44:57.764832,13.12444030,.00021216,87.8970,344.3441,102.5068,257.6298,0,U,47282,999,26882,-.33974002E-3,-.11E-5,0
ONEWEB-0137,2020-100AB,2026-07-18T20:43:58.401696,13.12442666,.00018129,87.8979,344.3639,93.2601,266.8735,0,U,47283,999,26872,.80378771E-3,.302E-5,0
ONEWEB-0138,2020-100AC,2026-07-18T20:12:16.246080,13.12443411,.00020915,87.8975,344.3728,99.2592,260.8773,0,U,47284,999,26880,.69429308E-3,.262E-5,0
ONEWEB-0139,2020-100AD,2026-07-18T21:11:01.130208,13.12441656,.00019294,87.8977,344.3504,97.4698,262.6650,0,U,47285,999,26888,-.99616952E-3,-.346E-5,0
ONEWEB-0140,2020-100AE,2026-07-18T20:04:56.820000,13.12443680,.00018003,87.8977,344.3512,102.2851,257.8480,0,U,47286,999,26884,.185188E-3,.79E-6,0
ONEWEB-0141,2020-100AF,2026-07-18T21:10:35.991264,13.12442415,.0001808,87.8975,344.3469,87.7088,272.4248,0,U,47287,999,26883,-.10276634E-2,-.357E-5,0
ONEWEB-0142,2020-100AG,2026-07-18T20:53:55.740192,13.12443305,.00021487,87.8969,344.3689,88.1015,272.0360,0,U,47288,999,26882,-.1612244E-4,.7E-7,0
ONEWEB-0143,2020-100AH,2026-07-18T21:08:21.868224,13.12442557,.00018276,87.8968,344.3666,95.4931,264.6406,0,U,47289,999,26880,-.79863274E-3,-.275E-5,0
ONEWEB-0144,2020-100AJ,2026-07-18T20:26:54.732768,13.12442355,.00022535,87.8979,344.3484,96.8606,263.2779,0,U,47290,999,26872,.10121272E-2,.377E-5,0
ONEWEB-0145,2020-100AK,2026-07-18T21:35:12.126624,13.12443763,.00019441,87.8966,344.3634,96.4480,263.6870,0,U,47291,999,26892,-.8872346E-3,-.306E-5,0
ONEWEB-0146,2020-100AL,2026-07-18T21:30:19.393056,13.12443636,.00015679,87.8977,344.3578,103.5580,256.5723,0,U,47292,999,26883,-.10832774E-2,-.377E-5,0
ONEWEB-0147,2020-100AM,2026-07-18T20:41:32.402112,13.12442660,.00019311,87.8977,344.3469,101.4625,258.6720,0,U,47293,999,26872,.98837091E-3,.368E-5,0
ONEWEB-0115,2021-025A,2026-07-18T20:46:29.521344,13.13461318,.00018537,87.8982,313.9205,102.8108,257.3228,0,U,48042,999,25775,-.10075592E-3,-.24E-6,0
ONEWEB-0152,2021-025B,2026-07-18T21:05:56.288544,13.13473171,.00018733,87.8992,313.9163,102.7920,257.3419,0,U,48043,999,25771,-.96262553E-3,-.339E-5,0
ONEWEB-0153,2021-025C,2026-07-18T20:34:16.065696,13.13469244,.00019962,87.8980,313.9210,98.2658,261.8698,0,U,48044,999,25770,.45537214E-3,.179E-5,0
ONEWEB-0154,2021-025D,2026-07-18T20:29:23.621568,13.13469648,.00019924,87.8989,313.9212,105.8820,254.2529,0,U,48045,999,25766,.82773366E-3,.315E-5,0
ONEWEB-0116,2021-025E,2026-07-18T19:35:45.399552,13.13470734,.00018433,87.8986,313.9258,103.1096,257.0239,0,U,48046,999,25780,-.50889038E-3,-.173E-5,0
ONEWEB-0150,2021-025F,2026-07-18T20:51:20.073312,13.13469373,.00018375,87.8992,313.9126,94.8902,265.2437,0,U,48047,999,25770,-.21271738E-3,-.65E-6,0
ONEWEB-0107,2021-025G,2026-07-18T19:04:03.991296,13.13471909,.00021101,87.8994,313.9231,99.2052,260.9316,0,U,48048,999,25767,-.53204415E-3,-.182E-5,0
ONEWEB-0101,2021-025H,2026-07-18T20:00:08.263008,13.13471531,.00021031,87.8976,313.9282,101.8186,258.3179,0,U,48049,999,25765,.511016E-3,.199E-5,0
ONEWEB-0113,2021-025J,2026-07-18T20:20:34.736928,13.13890661,.000187,87.8983,313.8327,96.2268,263.9074,0,U,48050,999,25776,.6332755E-3,.245E-5,0
ONEWEB-0112,2021-025K,2026-07-18T21:01:04.901952,13.13469681,.0002175,87.8988,313.9059,100.9713,259.1661,0,U,48051,999,25775,-.4685749E-3,-.158E-5,0
ONEWEB-0156,2021-025L,2026-07-18T19:23:33.089568,13.13471995,.00020075,87.8988,313.9289,96.6487,263.4871,0,U,48052,999,25772,-.94413059E-3,-.332E-5,0
ONEWEB-0161,2021-025M,2026-07-18T20:36:42.073056,13.13472424,.00020712,87.8990,313.9195,94.7683,265.3683,0,U,48053,999,25766,.44717295E-3,.176E-5,0
