ONEWEB-0130             
1 47276U 20100U   26199.90453339 -.00000108  00000+0 -33456-3 0  9996
2 47276  87.8979 344.3476 0001952  98.9364 261.1985 13.12444415268808
ONEWEB-0131             
1 47277U 20100V   26199.90114726 -.00000253  00000+0 -73870-3 0  9996
2 47277  87.8963 344.3631 0001867 102.6324 257.5013 13.12443623268844
ONEWEB-0132             
1 47278U 20100W   26199.85371303  .00000444  00000+0  11979-2 0  9998
2 47278  87.8967 344.3750 0001913  98.3466 261.7880 13.12441831268737
ONEWEB-0133             
1 47279U 20100X   26199.87050192  .00000040  00000+0  75519-4 0  9995
2 47279  87.8979 344.3511 0001870 105.4376 254.6960 13.12443059268899
ONEWEB-0134             
1 47280U 20100Y   26199.84015863  .00000202  00000+0  52723-3 0  9991
2 47280  87.8979 344.3546 0002080 101.7875 258.3487 13.12443367268860
ONEWEB-0135             
1 47281U 20100Z   26199.88758208 -.00000368  00000+0 -10590-2 0  9993
2 47281  87.8966 344.3636 0002025 105.3315 254.8038 13.12443479268895
ONEWEB-0136             
1 47282U 20100AA  26199.90622413 -.00000110  00000+0 -33974-3 0  9992
2 47282  87.8970 344.3441 0002121 102.5068 257.6298 13.12444030268822
ONEWEB-0137             
1 47283U 20100AB  26199.86387039  .00000302  00000+0  80379-3 0  9992
2 47283  87.8979 344.3639 0001812  93.2601 266.8735 13.12442666268726
ONEWEB-0138             
1 47284U 20100AC  26199.84185470  .00000262  00000+0  69429-3 0  9994
2 47284  87.8975 344.3728 0002091  99.2592 260.8773 13.12443411268801
ONEWEB-0139             
1 47285U 20100AD  26199.88265197 -.00000346  00000+0 -99617-3 0  9991
2 47285  87.8977 344.3504 0001929  97.4698 262.6650 13.12441656268883
ONEWEB-0140             
1 47286U 20100AE  26199.83676875  .00000079  00000+0  18519-3 0  9999
2 47286  87.8977 344.3512 0001800 102.2851 257.8480 13.12443680268849
ONEWEB-0141             
1 47287U 20100AF  26199.88236101 -.00000357  00000+0 -10277-2 0  9992
2 47287  87.8975 344.3469 0001808  87.7088 272.4248 13.12442415268835
ONEWEB-0142             
1 47288U 20100AG  26199.87078403  .00000007  00000+0 -16122-4 0  9999
2 47288  87.8969 344.3689 0002148  88.1015 272.0360 13.12443305268825
ONEWEB-0143             
1 47289U 20100AH  26199.88080866 -.00000275  00000+0 -79863-3 0  9995
2 47289  87.8968 344.3666 0001827  95.4931 264.6406 13.12442557268805
ONEWEB-0144             
1 47290U 20100AJ  26199.85202237  .00000377  00000+0  10121-2 0  9994
2 47290  87.8979 344.3484 0002253  96.8606 263.2779 13.12442355268720
ONEWEB-0145             
1 47291U 20100AK  26199.89944591 -.00000306  00000+0 -88723-3 0  9993
2 47291  87.8966 344.3634 0001944  96.4480 263.6870 13.12443763268928
ONEWEB-0146             
1 47292U 20100AL  26199.89605779 -.00000377  00000+0 -10833-2 0  9990
2 47292  87.8977 344.3578 0001567 103.5580 256.5723 13.12443636268837
ONEWEB-0147             
1 47293U 20100AM  26199.86218058  .00000368  00000+0  98837-3 0  9997
2 47293  87.8977 344.3469 0001931 101.4625 258.6720 13.12442660268723
ONEWEB-0115             
1 48042U 21025A   26199.86561946 -.00000024  00000+0 -10076-3 0  9994
2 48042  87.8982 313.9205 0001853 102.8108 257.3228 13.13461318257758
ONEWEB-0152             
1 48043U 21025B   26199.87912371 -.00000339  00000+0 -96263-3 0  9999
2 48043  87.8992 313.9163 0001873 102.7920 257.3419 13.13473171257714
ONEWEB-0153             
1 48044U 21025C   26199.85713039  .00000179  00000+0  45537-3 0  9996
2 48044  87.8980 313.9210 0001996  98.2658 261.8698 13.13469244257702
ONEWEB-0154             
1 48045U 21025D   26199.85374562  .00000315  00000+0  82773-3 0  9996
2 48045  87.8989 313.9212 0001992 105.8820 254.2529 13.13469648257668
ONEWEB-0116             
1 48046U 21025E   26199.81649768 -.00000173  00000+0 -50889-3 0  9993
2 48046  87.8986 313.9258 0001843 103.1096 257.0239 13.13470734257800
ONEWEB-0150             
1 48047U 21025F   26199.86898233 -.00000065  00000+0 -21272-3 0  9996
2 48047  87.8992 313.9126 0001837  94.8902 265.2437 13.13469373257704
ONEWEB-0107             
1 48048U 21025G   26199.79449064 -.00000182  00000+0 -53204-3 0  9993
2 48048  87.8994 313.9231 0002110  99.2052 260.9316 13.13471909257676
ONEWEB-0101             
1 48049U 21025H   26199.83342897  .00000199  00000+0  51102-3 0  9996
2 48049  87.8976 313.9282 0002103 101.8186 258.3179 13.13471531257650
ONEWEB-0113             
1 48050U 21025J   26199.84762427  .00000245  00000+0  63328-3 0  9999
2 48050  87.8983 313.8327 0001870  96.2268 263.9074 13.13890661257764
ONEWEB-0112             
1 48051U 21025K   26199.87575118 -.00000158  00000+0 -46857-3 0  9995
2 48051  87.8988 313.9059 0002175 100.9713 259.1661 13.13469681257752
ONEWEB-0156             
1 48052U 21025L   26199.80802187 -.00000332  00000+0 -94413-3 0  9993
2 48052  87.8988 313.9289 0002007  96.6487 263.4871 13.13471995257720
ONEWEB-0161             
1 48053U 21025M   26199.85882029  .00000176  00000+0  44717-3 0  9998
2 48053  87.8990 313.9195 0002071  94.7683 265.3683 13.13472424257661
